{
  "type": "FeatureCollection",
  "features": [
    {
      "type": "Feature",
      "properties": {
        "norad_id": 30480,
        "name": "FENGYUN 1C DEB",
        "group": "fengyun-1c-debris",
        "lat": 71.57025726958136,
        "lon": -10.03373267096313,
        "alt_km": 666.8901997211033,
        "timestamp": "2025-12-27T14:26:30.798419+00:00",
        "meta_object_name": "FENGYUN 1C DEB",
        "meta_object_id": "1999-025AGS",
        "meta_epoch": "2025-12-27T00:49:23.762784",
        "meta_mean_motion": 14.33619523,
        "meta_eccentricity": 0.01667832,
        "meta_inclination": 98.2232,
        "meta_ra_of_asc_node": 15.1457,
        "meta_arg_of_pericenter": 103.1876,
        "meta_mean_anomaly": 284.289,
        "meta_ephemeris_type": 0,
        "meta_classification_type": "U",
        "meta_norad_cat_id": 30480,
        "meta_element_set_no": 999,
        "meta_rev_at_epoch": 98873,
        "meta_bstar": 0.00025280916,
        "meta_mean_motion_dot": 7.75e-06,
        "meta_mean_motion_ddot": 0,
        "tle_line1": "1 30480U 99025AGS 25361.03430281  .00000775  00000+0  25281-3 0  9997",
        "tle_line2": "2 30480  98.2232  15.1457 0166783 103.1876 284.2890 14.33619523988738"
      },
      "geometry": {
        "type": "Point",
        "coordinates": [
          -10.03373267096313,
          71.57025726958136
        ]
      }
    },
    {
      "type": "Feature",
      "properties": {
        "norad_id": 30481,
        "name": "FENGYUN 1C DEB",
        "group": "fengyun-1c-debris",
        "lat": 62.692721476309515,
        "lon": -144.99610316789216,
        "alt_km": 777.0197132610838,
        "timestamp": "2025-12-27T14:26:30.798429+00:00",
        "meta_object_name": "FENGYUN 1C DEB",
        "meta_object_id": "1999-025AGT",
        "meta_epoch": "2025-12-27T00:48:10.118880",
        "meta_mean_motion": 14.39094274,
        "meta_eccentricity": 0.02233206,
        "meta_inclination": 98.3364,
        "meta_ra_of_asc_node": 17.952,
        "meta_arg_of_pericenter": 216.8286,
        "meta_mean_anomaly": 199.2714,
        "meta_ephemeris_type": 0,
        "meta_classification_type": "U",
        "meta_norad_cat_id": 30481,
        "meta_element_set_no": 999,
        "meta_rev_at_epoch": 98689,
        "meta_bstar": 0.00051565462,
        "meta_mean_motion_dot": 2.083e-05,
        "meta_mean_motion_ddot": 0,
        "tle_line1": "1 30481U 99025AGT 25361.03345045  .00002083  00000+0  51565-3 0  9999",
        "tle_line2": "2 30481  98.3364  17.9520 0223320 216.8286 199.2714 14.39094274986896"
      },
      "geometry": {
        "type": "Point",
        "coordinates": [
          -144.99610316789216,
          62.692721476309515
        ]
      }
    },
    {
      "type": "Feature",
      "properties": {
        "norad_id": 30489,
        "name": "FENGYUN 1C DEB",
        "group": "fengyun-1c-debris",
        "lat": 10.069953656919887,
        "lon": -162.71914858344994,
        "alt_km": 778.5167378831457,
        "timestamp": "2025-12-27T14:26:30.798439+00:00",
        "meta_object_name": "FENGYUN 1C DEB",
        "meta_object_id": "1999-025AHB",
        "meta_epoch": "2025-12-27T06:55:40.393344",
        "meta_mean_motion": 14.15837308,
        "meta_eccentricity": 0.01392928,
        "meta_inclination": 98.468,
        "meta_ra_of_asc_node": 15.4672,
        "meta_arg_of_pericenter": 222.8308,
        "meta_mean_anomaly": 153.2379,
        "meta_ephemeris_type": 0,
        "meta_classification_type": "U",
        "meta_norad_cat_id": 30489,
        "meta_element_set_no": 999,
        "meta_rev_at_epoch": 97593,
        "meta_bstar": 0.00027636297,
        "meta_mean_motion_dot": 5.55e-06,
        "meta_mean_motion_ddot": 0,
        "tle_line1": "1 30489U 99025AHB 25361.28866196  .00000555  00000+0  27636-3 0  9993",
        "tle_line2": "2 30489  98.4680  15.4672 0139292 222.8308 153.2379 14.15837308975930"
      },
      "geometry": {
        "type": "Point",
        "coordinates": [
          -162.71914858344994,
          10.069953656919887
        ]
      }
    },
    {
      "type": "Feature",
      "properties": {
        "norad_id": 30490,
        "name": "FENGYUN 1C DEB",
        "group": "fengyun-1c-debris",
        "lat": -51.68272940338713,
        "lon": 145.72719333904115,
        "alt_km": 490.68650467904536,
        "timestamp": "2025-12-27T14:26:30.798449+00:00",
        "meta_object_name": "FENGYUN 1C DEB",
        "meta_object_id": "1999-025AHC",
        "meta_epoch": "2025-12-27T02:07:35.510880",
        "meta_mean_motion": 15.31502698,
        "meta_eccentricity": 0.00452074,
        "meta_inclination": 98.3275,
        "meta_ra_of_asc_node": 134.4691,
        "meta_arg_of_pericenter": 64.1373,
        "meta_mean_anomaly": 296.4517,
        "meta_ephemeris_type": 0,
        "meta_classification_type": "U",
        "meta_norad_cat_id": 30490,
        "meta_element_set_no": 999,
        "meta_rev_at_epoch": 99715,
        "meta_bstar": 0.0044409938,
        "meta_mean_motion_dot": 0.00141719,
        "meta_mean_motion_ddot": 0,
        "tle_line1": "1 30490U 99025AHC 25361.08860545  .00141719  00000+0  44410-2 0  9991",
        "tle_line2": "2 30490  98.3275 134.4691 0045207  64.1373 296.4517 15.31502698997157"
      },
      "geometry": {
        "type": "Point",
        "coordinates": [
          145.72719333904115,
          -51.68272940338713
        ]
      }
    },
    {
      "type": "Feature",
      "properties": {
        "norad_id": 30492,
        "name": "FENGYUN 1C DEB",
        "group": "fengyun-1c-debris",
        "lat": 62.30635862819952,
        "lon": 1.0954230818746902,
        "alt_km": 662.4089432195851,
        "timestamp": "2025-12-27T14:26:30.798459+00:00",
        "meta_object_name": "FENGYUN 1C DEB",
        "meta_object_id": "1999-025AHE",
        "meta_epoch": "2025-12-27T00:55:16.006080",
        "meta_mean_motion": 14.52209249,
        "meta_eccentricity": 0.00940229,
        "meta_inclination": 102.3252,
        "meta_ra_of_asc_node": 24.8893,
        "meta_arg_of_pericenter": 24.3844,
        "meta_mean_anomaly": 336.1743,
        "meta_ephemeris_type": 0,
        "meta_classification_type": "U",
        "meta_norad_cat_id": 30492,
        "meta_element_set_no": 999,
        "meta_rev_at_epoch": 97102,
        "meta_bstar": 0.0036325808,
        "meta_mean_motion_dot": 0.00015571,
        "meta_mean_motion_ddot": 0,
        "tle_line1": "1 30492U 99025AHE 25361.03837970  .00015571  00000+0  36326-2 0  9997",
        "tle_line2": "2 30492 102.3252  24.8893 0094022  24.3844 336.1743 14.52209249971025"
      },
      "geometry": {
        "type": "Point",
        "coordinates": [
          1.0954230818746902,
          62.30635862819952
        ]
      }
    },
    {
      "type": "Feature",
      "properties": {
        "norad_id": 30493,
        "name": "FENGYUN 1C DEB",
        "group": "fengyun-1c-debris",
        "lat": 72.60278073626242,
        "lon": 39.6263764197256,
        "alt_km": 864.6938151178547,
        "timestamp": "2025-12-27T14:26:30.798469+00:00",
        "meta_object_name": "FENGYUN 1C DEB",
        "meta_object_id": "1999-025AHF",
        "meta_epoch": "2025-12-27T07:53:02.960736",
        "meta_mean_motion": 13.93076788,
        "meta_eccentricity": 0.01804657,
        "meta_inclination": 98.5722,
        "meta_ra_of_asc_node": 190.5968,
        "meta_arg_of_pericenter": 176.3711,
        "meta_mean_anomaly": 1.1752,
        "meta_ephemeris_type": 0,
        "meta_classification_type": "U",
        "meta_norad_cat_id": 30493,
        "meta_element_set_no": 999,
        "meta_rev_at_epoch": 95298,
        "meta_bstar": 0.0027957467,
        "meta_mean_motion_dot": 4.122e-05,
        "meta_mean_motion_ddot": 0,
        "tle_line1": "1 30493U 99025AHF 25361.32850649  .00004122  00000+0  27957-2 0  9998",
        "tle_line2": "2 30493  98.5722 190.5968 0180465 176.3711   1.1752 13.93076788952983"
      },
      "geometry": {
        "type": "Point",
        "coordinates": [
          39.6263764197256,
          72.60278073626242
        ]
      }
    },
    {
      "type": "Feature",
      "properties": {
        "norad_id": 30494,
        "name": "FENGYUN 1C DEB",
        "group": "fengyun-1c-debris",
        "lat": 16.951235429542105,
        "lon": 33.83472974814316,
        "alt_km": 1098.7929867709317,
        "timestamp": "2025-12-27T14:26:30.798480+00:00",
        "meta_object_name": "FENGYUN 1C DEB",
        "meta_object_id": "1999-025AHG",
        "meta_epoch": "2025-12-26T08:45:41.685984",
        "meta_mean_motion": 13.79412088,
        "meta_eccentricity": 0.0186272,
        "meta_inclination": 99.2815,
        "meta_ra_of_asc_node": 35.4794,
        "meta_arg_of_pericenter": 186.267,
        "meta_mean_anomaly": 173.6149,
        "meta_ephemeris_type": 0,
        "meta_classification_type": "U",
        "meta_norad_cat_id": 30494,
        "meta_element_set_no": 999,
        "meta_rev_at_epoch": 94674,
        "meta_bstar": 0.0013009,
        "meta_mean_motion_dot": 1.48e-05,
        "meta_mean_motion_ddot": 0,
        "tle_line1": "1 30494U 99025AHG 25360.36506581  .00001480  00000+0  13009-2 0  9992",
        "tle_line2": "2 30494  99.2815  35.4794 0186272 186.2670 173.6149 13.79412088946748"
      },
      "geometry": {
        "type": "Point",
        "coordinates": [
          33.83472974814316,
          16.951235429542105
        ]
      }
    }
  ]
}